IRIDIUM 119             
1 42959U 17061E   25212.61012380  .00000067  00000+0  16915-4 0  9995
2 42959  86.4023 159.2468 0002195  78.5859 281.5583 14.34218000408869
IRIDIUM 107             
1 42960U 17061F   25212.83845489  .00000060  00000+0  14502-4 0  9998
2 42960  86.4025 159.1709 0001778  81.9898 278.1500 14.34218716408918
IRIDIUM 132             
1 42961U 17061G   25212.84479701  .00000264  00000+0  87033-4 0  9995
2 42961  86.4023 159.1500 0002152  85.4428 274.7013 14.34219843408903
IRIDIUM 136             
1 42962U 17061H   25212.59743871  .00000075  00000+0  19560-4 0  9990
2 42962  86.4024 159.2582 0002112  79.9583 280.1851 14.34218034408881
IRIDIUM 139             
1 42963U 17061J   25212.60378090  .00000089  00000+0  24568-4 0  9999
2 42963  86.4026 159.3123 0001996  85.4203 274.7221 14.34218128408891
IRIDIUM 125             
1 42964U 17061K   25212.87016834 -.00000010  00000+0 -10621-4 0  9995
2 42964  86.4031 159.2565 0001869  69.4574 290.6822 14.34218182408949
IRIDIUM 135             
1 43070U 17083A   25212.63498973  .00000091  00000+0  25571-4 0  9997
2 43070  86.3945  96.0414 0002352  88.3732 271.7733 14.34217435398204
IRIDIUM 138             
1 43071U 17083B   25212.59059251  .00000011  00000+0 -30082-5 0  9992
2 43071  86.3932  95.7247 0002237  71.8902 288.2537 14.34217482398183
